METHANESAT              
1 59101U 24043D   26121.30278185  .00003750  00000+0  32307-3 0  9997
2 59101  97.8368 252.1389 0011279 159.7189 200.4483 14.97903932117635
GOSAT-GW (IBUKI GW)     
1 64694U 25141A   26121.28131959 -.00001055  00000+0 -17765-3 0  9993
2 64694  98.0553  59.3657 0001423  81.4356 278.7010 14.67553960 44967
GHGSAT-C1               
1 46278U 20061G   26121.24352462  .00040338  00000+0  36344-3 0  9996
2 46278  97.2115 204.9436 0002037 163.2045 196.9284 15.68089826316119
GHGSAT-C12              
1 64529U 25135B   26121.18238967  .00004499  00000+0  21220-3 0  9993
2 64529  97.4691 236.4307 0004453 356.1476   3.9724 15.19977844 47682
GHGSAT-C13              
1 64548U 25135W   26121.27483760  .00004543  00000+0  21021-3 0  9996
2 64548  97.4721 237.0192 0000374  93.8824 266.2454 15.20641366 47724
GHGSAT-C2               
1 47509U 21006DA  26121.09461351  .00007119  00000+0  19734-3 0  9999
2 47509  97.2192 169.1687 0004557 358.6810   1.4422 15.37237340292615
GHGSAT-C3               
1 52737U 22057F   26121.33931097  .00008411  00000+0  26017-3 0  9999
2 52737  97.6531 265.2799 0004724 290.3933  69.6801 15.33754132218356
GHGSAT-C4               
1 52746U 22057Q   26121.16367984  .00008250  00000+0  25538-3 0  9996
2 52746  97.6457 263.9771 0004938 272.0356  88.0321 15.33735465218339
GHGSAT-C5               
1 52744U 22057N   26121.31232324  .00008882  00000+0  27474-3 0  9992
2 52744  97.6620 266.7720 0005407 286.5424  73.5223 15.33731815218359
GHGSAT-C6               
1 56204U 23054AC  26121.19532269  .00016794  00000+0  28473-3 0  9993
2 56204  97.3079  30.3011 0005878 186.1925 173.9256 15.51568798171166
GHGSAT-C7               
1 56209U 23054AH  26121.24355265  .00012621  00000+0  23557-3 0  9996
2 56209  97.3046  29.0481 0007083 188.8425 171.2703 15.48893517171125
GHGSAT-C8               
1 56186U 23054J   26121.16585729  .00017348  00000+0  29392-3 0  9995
2 56186  97.3023  29.6289 0002921 207.7929 152.3168 15.51594598171140
SENTINEL-5P             
1 42969U 17064A   26121.25806587  .00000044  00000+0  41911-4 0  9998
2 42969  98.7947  63.7276 0001232  80.1811 279.9504 14.19510830442901
ENMAP                   
1 52159U 22033C   26121.15293913  .00000386  00000+0  64928-4 0  9996
2 52159  97.9792 204.0703 0001493  85.1809 274.9571 14.74947281219724
PRISMA                  
1 44072U 19015A   26121.33644696  .00000152  00000+0  24768-4 0  9994
2 44072  97.8658 196.8026 0001224  81.2619 278.8734 14.83668444385104
SENTINEL-2A             
1 40697U 15028A   26120.87202089  .00000077  00000+0  45978-4 0  9999
2 40697  98.5628 196.3969 0001276  84.4074 275.7254 14.30824654566963
SENTINEL-2B             
1 42063U 17013A   26121.28439729 -.00000079  00000+0 -13487-4 0  9997
2 42063  98.5653 196.7214 0001212  91.0349 269.0973 14.30815154477933
SENTINEL-2C             
1 60989U 24157A   26121.17955356  .00000132  00000+0  67160-4 0  9993
2 60989  98.5630 196.6285 0001505  99.5233 260.6120 14.30817979 86262
LANDSAT 8               
1 39084U 13008A   26121.26097248  .00000395  00000+0  97715-4 0  9995
2 39084  98.1848 192.1005 0001248 102.8202 257.3136 14.57135992691067
LANDSAT 9               
1 49260U 21088A   26121.22679024  .00000406  00000+0  99973-4 0  9994
2 49260  98.1868 192.1415 0001306 105.6867 254.4476 14.57124778244164
TANAGER-1               
1 60507U 24149AR  26120.22224313  .00006915  00000+0  15179-3 0  9994
2 60507  97.3390 214.2484 0007344 114.5412 245.6603 15.44346423 95637
